XRISM                   
1 57800U 23137A   26070.81982774  .00005156  00000+0  29113-3 0  9992
2 57800  31.0013 269.8857 0007911  60.2146 299.9279 15.11526432138113
ACS3                    
1 59588U 24077B   26070.80202582  .00031418  00000+0  25147-1 0  9993
2 59588  97.2057  11.4389 0061271  71.4035 289.3771 13.89729233 94490
SZ-21 MODULE            
1 66515U 25246C   26070.41045323  .00043213  00000+0  36895-3 0  9995
2 66515  41.4735 192.7670 0001240 303.7163  56.3560 15.68699733 18349
