CCSDS_OMM_VERS = 2.0
CREATION_DATE  = 
ORIGINATOR     = 

OBJECT_NAME    = XRISM
OBJECT_ID      = 2023-137A
CENTER_NAME    = EARTH
REF_FRAME      = TEME
TIME_SYSTEM    = UTC
MEAN_ELEMENT_THEORY = SGP/SGP4

EPOCH          = 2026-03-11T19:40:33.116736
MEAN_MOTION    = 15.11526432
ECCENTRICITY   = .0007911
INCLINATION    = 31.0013
RA_OF_ASC_NODE = 269.8857
ARG_OF_PERICENTER = 60.2146
MEAN_ANOMALY   = 299.9279

EPHEMERIS_TYPE = 0
CLASSIFICATION_TYPE = U
NORAD_CAT_ID   = 57800
ELEMENT_SET_NO = 999
REV_AT_EPOCH   = 13811
BSTAR          = .29113E-3
MEAN_MOTION_DOT = .5156E-4
MEAN_MOTION_DDOT = 0

CCSDS_OMM_VERS = 2.0
CREATION_DATE  = 
ORIGINATOR     = 

OBJECT_NAME    = ACS3
OBJECT_ID      = 2024-077B
CENTER_NAME    = EARTH
REF_FRAME      = TEME
TIME_SYSTEM    = UTC
MEAN_ELEMENT_THEORY = SGP/SGP4

EPOCH          = 2026-03-11T19:14:55.030848
MEAN_MOTION    = 13.89729233
ECCENTRICITY   = .0061271
INCLINATION    = 97.2057
RA_OF_ASC_NODE = 11.4389
ARG_OF_PERICENTER = 71.4035
MEAN_ANOMALY   = 289.3771

EPHEMERIS_TYPE = 0
CLASSIFICATION_TYPE = U
NORAD_CAT_ID   = 59588
ELEMENT_SET_NO = 999
REV_AT_EPOCH   = 9449
BSTAR          = .25147E-1
MEAN_MOTION_DOT = .31418E-3
MEAN_MOTION_DDOT = 0

CCSDS_OMM_VERS = 2.0
CREATION_DATE  = 
ORIGINATOR     = 

OBJECT_NAME    = SZ-21 MODULE
OBJECT_ID      = 2025-246C
CENTER_NAME    = EARTH
REF_FRAME      = TEME
TIME_SYSTEM    = UTC
MEAN_ELEMENT_THEORY = SGP/SGP4

EPOCH          = 2026-03-11T09:51:03.159072
MEAN_MOTION    = 15.68699733
ECCENTRICITY   = .000124
INCLINATION    = 41.4735
RA_OF_ASC_NODE = 192.7670
ARG_OF_PERICENTER = 303.7163
MEAN_ANOMALY   = 56.3560

EPHEMERIS_TYPE = 0
CLASSIFICATION_TYPE = U
NORAD_CAT_ID   = 66515
ELEMENT_SET_NO = 999
REV_AT_EPOCH   = 1834
BSTAR          = .36895E-3
MEAN_MOTION_DOT = .43213E-3
MEAN_MOTION_DDOT = 0

